IRIDIUM 155             
1 43573U 18061E   24234.77526025  .00000875  00000+0  30531-3 0  9991
2 43573  86.4013 334.3518 0002013  88.3403 271.8024 14.34216866318125
IRIDIUM 154             
1 43574U 18061F   24234.82599861  .00000819  00000+0  28531-3 0  9991
2 43574  86.4020 334.4314 0002360  91.1149 269.0317 14.34213953318187
IRIDIUM 163             
1 43575U 18061G   24234.80698238  .00000983  00000+0  34384-3 0  9993
2 43575  86.4015 334.3757 0002252  91.4370 268.7084 14.34217622318152
IRIDIUM 156             
1 43576U 18061H   24234.78160130  .00000865  00000+0  30169-3 0  9992
2 43576  86.4016 334.3929 0001958  94.0649 266.0770 14.34218113318143
IRIDIUM 164             
1 43577U 18061J   24234.83234336  .00000684  00000+0  23719-3 0  9991
2 43577  86.4016 334.4014 0002220 101.9776 258.1668 14.34217047318190
IRIDIUM 159             
1 43578U 18061K   24234.73086221  .00000789  00000+0  27464-3 0  9996
2 43578  86.4018 334.3951 0002295  96.5481 263.5976 14.34218331318140
IRIDIUM 180             
1 43922U 19002A   24234.93967473  .00000743  00000+0  25840-3 0  9990
2 43922  86.3921 271.1678 0002413  94.7321 265.4151 14.34216885293829
IRIDIUM 176             
1 43923U 19002B   24234.84251408  .00002696  00000+0  42359-3 0  9998
2 43923  86.6047 271.2255 0002503  95.0885 265.0618 14.72250184301504
IRIDIUM 168             
1 43924U 19002C   24234.86355774  .00000719  00000+0  24956-3 0  9999
2 43924  86.3924 271.2584 0002311  94.4561 265.6899 14.34218925293751
IRIDIUM 173             
1 43925U 19002D   24234.85088054  .00000741  00000+0  25764-3 0  9996
2 43925  86.3920 271.1797 0002389  93.1535 266.9934 14.34216247293732
IRIDIUM 169             
1 43926U 19002E   24234.71635566  .00001695  00000+0  54767-3 0  9992
2 43926  86.4227 302.8780 0003318  59.2820 300.8704 14.38593755294696
IRIDIUM 172             
1 43927U 19002F   24234.84453707  .00000719  00000+0  24981-3 0  9993
2 43927  86.3920 271.1882 0002244  92.6390 267.5062 14.34216249293744
IRIDIUM 175             
1 43928U 19002G   24234.56532676  .00001212  00000+0  18827-3 0  9997
2 43928  86.1472 240.7869 0002423  86.7114 273.4380 14.72243842301457
IRIDIUM 171             
1 43929U 19002H   24234.82549225 -.00000004  00000+0 -86057-5 0  9997
2 43929  86.3933 271.4289 0001915  98.6190 261.5222 14.34214511293733
IRIDIUM 170             
1 43930U 19002J   24234.84870755  .00003089  00000+0  48590-3 0  9998
2 43930  86.6046 271.2282 0002545  93.0058 267.1450 14.72250993301513
IRIDIUM 167             
1 43931U 19002K   24234.81915366  .00000739  00000+0  25698-3 0  9997
2 43931  86.3923 271.2155 0002108  93.0841 267.0596 14.34215854293738
IRIDIUM 181             
1 56726U 23068S   24234.81919868  .00001266  00000+0  36823-3 0  9999
2 56726  86.8673 328.1533 0001874  89.2596 270.8820 14.43573640 66602
IRIDIUM 177             
1 56727U 23068T   24234.86632715  .00003882  00000+0  50753-3 0  9992
2 56727  86.1943 284.1766 0002065  87.7133 272.4325 14.80209862 68094
IRIDIUM 174             
1 56728U 23068U   24234.86090720  .00001785  00000+0  23152-3 0  9990
2 56728  86.1951 284.2883 0001934  85.6056 274.5386 14.80208292 68096
IRIDIUM 178             
1 56729U 23068V   24234.72028557  .00001425  00000+0  18424-3 0  9992
2 56729  86.5785 304.9333 0002056  96.7922 263.3533 14.80210240 68071
IRIDIUM 179             
1 56730U 23068W   24234.71461775  .00002984  00000+0  38885-3 0  9990
2 56730  86.6801 309.8966 0002166  85.2360 274.9109 14.80276470 68074
